QIANFAN-1               
1 60379U 24140A   25274.55382804  .00000102  00000+0  13868-3 0  9992
2 60379  88.9762 306.7662 0019394  67.0511 293.2684 13.50974878 57607
QIANFAN-2               
1 60380U 24140B   25274.50846833  .00000101  00000+0  13835-3 0  9999
2 60380  88.9748 306.6202 0014020  43.7937 316.4323 13.50967028 57658
QIANFAN-3               
1 60381U 24140C   25274.51675438  .00000102  00000+0  13932-3 0  9991
2 60381  88.9741 306.7573 0015489  54.5576 305.7019 13.50967090 57565
QIANFAN-4               
1 60382U 24140D   25274.49210433  .00000112  00000+0  15516-3 0  9990
2 60382  88.9766 306.6394 0014334  46.0735 314.1597 13.50974177 57686
QIANFAN-5               
1 60383U 24140E   25274.54147200  .00000098  00000+0  13307-3 0  9997
2 60383  88.9741 306.7804 0017010  64.1066 296.1837 13.50970185 57556
QIANFAN-6               
1 60384U 24140F   25274.56209531  .00000137  00000+0  19262-3 0  9996
2 60384  88.9767 306.5053 0014605  51.1274 309.1178 13.50971777 57756
QIANFAN-7               
1 60385U 24140G   25274.54932111  .00000776  00000+0  30951-3 0  9999
2 60385  88.9770 302.2176 0012544 279.3728  80.6048 14.27566118 60090
QIANFAN-8               
1 60386U 24140H   25274.49619473  .00000105  00000+0  14388-3 0  9999
2 60386  88.9769 306.7484 0018112  52.0495 308.2290 13.50969862 57591
